TRANSPORTER-12 OBJECT AZ
1 62656U 25009AZ  26068.71026235  .00016057  00000+0  54903-3 0  9991
2 62656  97.3981 151.9913 0000987  45.3581 314.7740 15.30349724 63792
STARLINK-34186          
1 64145U 25111Y   26068.43961354  .00016533  00000+0  60827-3 0  9990
2 64145  43.0012  79.4066 0001391 285.7216  74.3482 15.27617234 45420
